format  = 'OEF2.0'       ! file format
rectype = 'ML'           ! record type (1L/ML)
refsys  = ECLM J2000     ! default reference system
END_OF_HEADER
temp
! Cometary elements: q, e, i, long. node, arg. peric., pericenter time
 COM   7.460427734884345E-01  0.191212213298582   3.331518152260577  204.439642658873993  126.423862513512603   55218.023111066780984
 MJD     55197.000000000 TDT
 MAG  19.700  0.250
! Non-grav parameters: model used, actual number in use, dimension
 LSP   0  0    6
! RMS    2.90115E-09   3.14395E-08   2.97594E-08   3.18456E-08   3.18245E-08   3.97334E-06
! EIG   1.65099E-09   2.96887E-08   3.12090E-08   3.12852E-08   3.24854E-08   6.94718E-08
! WEA   0.03427  -0.02611   0.01394   0.01518   0.04363  -0.99791
 COV   8.416698768255657E-18 -1.465587306769135E-18  8.091167808126779E-19
 COV   2.152561694154779E-18  3.420019040173357E-18 -9.467057278796147E-15
 COV   9.884421842147777E-16 -1.792741974423255E-17  1.972862481202626E-17
 COV   1.341097859619348E-17  5.786453296501320E-15  8.856234514608942E-16
 COV  -2.929554547592711E-18  9.178242767249992E-18 -3.104286381493221E-15
 COV   1.014142595955366E-15  3.701165572401731E-17 -3.258015713202228E-15
 COV   1.012799173906613E-15 -9.526386951856685E-15  1.578739888043853E-11
 NOR   3.664271831958311E+17 -7.502927727696384E+14  4.141676299982450E+14
 NOR  -8.423042565980175E+13  8.466967531576468E+14  2.205813588463062E+14
 NOR   1.016446496166562E+15  1.845984041020283E+13 -2.014255680369505E+13
 NOR  -1.820131432400191E+13 -8.339814451077467E+11  1.130848390943001E+15
 NOR   3.787636210520775E+12 -7.701868421488197E+12  4.600870723431448E+11
 NOR   9.883397486155219E+14 -3.427571123289421E+13  1.408972033295217E+11
 NOR   9.964802652131335E+14  1.107106042789595E+12  1.967085385584677E+11
